[{"OBJECT_NAME":"SAUDISAT 5A","OBJECT_ID":"2018-102A","EPOCH":"2026-03-09T23:40:00.596928","MEAN_MOTION":15.26941021,"ECCENTRICITY":0.00113651,"INCLINATION":97.3185,"RA_OF_ASC_NODE":132.4981,"ARG_OF_PERICENTER":121.7113,"MEAN_ANOMALY":238.5235,"EPHEMERIS_TYPE":0,"CLASSIFICATION_TYPE":"U","NORAD_CAT_ID":43831,"ELEMENT_SET_NO":999,"REV_AT_EPOCH":40053,"BSTAR":0.00030305233,"MEAN_MOTION_DOT":7.96e-5,"MEAN_MOTION_DDOT":0},{"OBJECT_NAME":"STARLINK-31018","OBJECT_ID":"2023-203T","EPOCH":"2026-03-09T00:11:04.282944","MEAN_MOTION":15.27567475,"ECCENTRICITY":0.00017451,"INCLINATION":43.0031,"RA_OF_ASC_NODE":71.2406,"ARG_OF_PERICENTER":269.61,"MEAN_ANOMALY":90.4552,"EPHEMERIS_TYPE":0,"CLASSIFICATION_TYPE":"U","NORAD_CAT_ID":58635,"ELEMENT_SET_NO":999,"REV_AT_EPOCH":12468,"BSTAR":-0.00011530072,"MEAN_MOTION_DOT":-3.432e-5,"MEAN_MOTION_DDOT":0}]
